[{"OBJECT_NAME":"STARLINK-30480","OBJECT_ID":"2023-158U","EPOCH":"2026-03-17T14:49:24.172896","MEAN_MOTION":15.2756874,"ECCENTRICITY":0.00016072,"INCLINATION":42.999,"RA_OF_ASC_NODE":200.0543,"ARG_OF_PERICENTER":263.0217,"MEAN_ANOMALY":97.0452,"EPHEMERIS_TYPE":0,"CLASSIFICATION_TYPE":"U","NORAD_CAT_ID":58069,"ELEMENT_SET_NO":999,"REV_AT_EPOCH":13645,"BSTAR":0.00019647335,"MEAN_MOTION_DOT":5.146e-5,"MEAN_MOTION_DDOT":0},{"OBJECT_NAME":"STARLINK-30532","OBJECT_ID":"2023-158V","EPOCH":"2026-03-17T18:11:05.921952","MEAN_MOTION":15.27578418,"ECCENTRICITY":6.35e-5,"INCLINATION":42.9977,"RA_OF_ASC_NODE":341.4942,"ARG_OF_PERICENTER":316.4536,"MEAN_ANOMALY":43.6266,"EPHEMERIS_TYPE":0,"CLASSIFICATION_TYPE":"U","NORAD_CAT_ID":58070,"ELEMENT_SET_NO":999,"REV_AT_EPOCH":13480,"BSTAR":0.00021951,"MEAN_MOTION_DOT":5.783e-5,"MEAN_MOTION_DDOT":0},{"OBJECT_NAME":"STARLINK-30513","OBJECT_ID":"2023-158W","EPOCH":"2026-03-17T15:08:49.672608","MEAN_MOTION":16.10752092,"ECCENTRICITY":0.0019123,"INCLINATION":42.9756,"RA_OF_ASC_NODE":31.3119,"ARG_OF_PERICENTER":182.3889,"MEAN_ANOMALY":177.6904,"EPHEMERIS_TYPE":0,"CLASSIFICATION_TYPE":"U","NORAD_CAT_ID":58071,"ELEMENT_SET_NO":999,"REV_AT_EPOCH":13839,"BSTAR":0.0022345,"MEAN_MOTION_DOT":0.02207468,"MEAN_MOTION_DDOT":0.004717},{"OBJECT_NAME":"STARLINK-30506","OBJECT_ID":"2023-158X","EPOCH":"2026-03-17T10:35:08.606976","MEAN_MOTION":15.27566786,"ECCENTRICITY":0.00015684,"INCLINATION":43.0022,"RA_OF_ASC_NODE":343.4073,"ARG_OF_PERICENTER":286.4633,"MEAN_ANOMALY":73.6047,"EPHEMERIS_TYPE":0,"CLASSIFICATION_TYPE":"U","NORAD_CAT_ID":58072,"ELEMENT_SET_NO":999,"REV_AT_EPOCH":13475,"BSTAR":-0.00010064312,"MEAN_MOTION_DOT":-3.029e-5,"MEAN_MOTION_DDOT":0},{"OBJECT_NAME":"STARLINK-30604","OBJECT_ID":"2023-160A","EPOCH":"2026-03-17T13:47:13.506432","MEAN_MOTION":15.27370922,"ECCENTRICITY":0.00015701,"INCLINATION":43.0006,"RA_OF_ASC_NODE":33.1911,"ARG_OF_PERICENTER":282.8378,"MEAN_ANOMALY":77.2298,"EPHEMERIS_TYPE":0,"CLASSIFICATION_TYPE":"U","NORAD_CAT_ID":58075,"ELEMENT_SET_NO":999,"REV_AT_EPOCH":13415,"BSTAR":0.0016755014,"MEAN_MOTION_DOT":0.00045837,"MEAN_MOTION_DDOT":0},{"OBJECT_NAME":"STARLINK-30500","OBJECT_ID":"2023-160B","EPOCH":"2026-03-17T20:18:16.547040","MEAN_MOTION":15.27059865,"ECCENTRICITY":0.000306,"INCLINATION":43.001,"RA_OF_ASC_NODE":31.7745,"ARG_OF_PERICENTER":270.9752,"MEAN_ANOMALY":89.0749,"EPHEMERIS_TYPE":0,"CLASSIFICATION_TYPE":"U","NORAD_CAT_ID":58076,"ELEMENT_SET_NO":999,"REV_AT_EPOCH":13419,"BSTAR":0.0016338,"MEAN_MOTION_DOT":0.00044262,"MEAN_MOTION_DDOT":0},{"OBJECT_NAME":"STARLINK-30613","OBJECT_ID":"2023-160C","EPOCH":"2026-03-17T13:56:24.869760","MEAN_MOTION":15.27569704,"ECCENTRICITY":8.48e-5,"INCLINATION":42.9968,"RA_OF_ASC_NODE":33.2324,"ARG_OF_PERICENTER":274.4028,"MEAN_ANOMALY":85.6727,"EPHEMERIS_TYPE":0,"CLASSIFICATION_TYPE":"U","NORAD_CAT_ID":58077,"ELEMENT_SET_NO":999,"REV_AT_EPOCH":13416,"BSTAR":8.5347e-6,"MEAN_MOTION_DOT":-2.7e-7,"MEAN_MOTION_DDOT":0},{"OBJECT_NAME":"STARLINK-30597","OBJECT_ID":"2023-160D","EPOCH":"2026-03-17T20:00:01.999008","MEAN_MOTION":15.27566436,"ECCENTRICITY":0.0001178,"INCLINATION":43.001,"RA_OF_ASC_NODE":31.6111,"ARG_OF_PERICENTER":258.3899,"MEAN_ANOMALY":129.836,"EPHEMERIS_TYPE":0,"CLASSIFICATION_TYPE":"U","NORAD_CAT_ID":58078,"ELEMENT_SET_NO":999,"REV_AT_EPOCH":572,"BSTAR":0.0012816,"MEAN_MOTION_DOT":0.00035159,"MEAN_MOTION_DDOT":0},{"OBJECT_NAME":"STARLINK-30598","OBJECT_ID":"2023-160E","EPOCH":"2026-03-17T14:01:56.829792","MEAN_MOTION":15.2757653,"ECCENTRICITY":5.071e-5,"INCLINATION":43.0024,"RA_OF_ASC_NODE":33.2635,"ARG_OF_PERICENTER":292.1089,"MEAN_ANOMALY":67.9709,"EPHEMERIS_TYPE":0,"CLASSIFICATION_TYPE":"U","NORAD_CAT_ID":58079,"ELEMENT_SET_NO":999,"REV_AT_EPOCH":13415,"BSTAR":7.9898962e-5,"MEAN_MOTION_DOT":1.937e-5,"MEAN_MOTION_DDOT":0},{"OBJECT_NAME":"STARLINK-30603","OBJECT_ID":"2023-160F","EPOCH":"2026-03-17T20:00:01.999008","MEAN_MOTION":15.27566523,"ECCENTRICITY":0.0001391,"INCLINATION":43.0009,"RA_OF_ASC_NODE":31.9081,"ARG_OF_PERICENTER":261.9175,"MEAN_ANOMALY":6.0272,"EPHEMERIS_TYPE":0,"CLASSIFICATION_TYPE":"U","NORAD_CAT_ID":58080,"ELEMENT_SET_NO":999,"REV_AT_EPOCH":581,"BSTAR":0.0012891,"MEAN_MOTION_DOT":0.00035367,"MEAN_MOTION_DDOT":0},{"OBJECT_NAME":"STARLINK-30602","OBJECT_ID":"2023-160G","EPOCH":"2026-03-17T13:39:17.142624","MEAN_MOTION":15.23144301,"ECCENTRICITY":0.00012626,"INCLINATION":43.003,"RA_OF_ASC_NODE":33.9927,"ARG_OF_PERICENTER":246.6079,"MEAN_ANOMALY":113.4638,"EPHEMERIS_TYPE":0,"CLASSIFICATION_TYPE":"U","NORAD_CAT_ID":58081,"ELEMENT_SET_NO":999,"REV_AT_EPOCH":13414,"BSTAR":0.00063348422,"MEAN_MOTION_DOT":0.00015034,"MEAN_MOTION_DDOT":0},{"OBJECT_NAME":"STARLINK-30610","OBJECT_ID":"2023-160H","EPOCH":"2026-03-16T22:33:45.509184","MEAN_MOTION":15.26743374,"ECCENTRICITY":0.00013626,"INCLINATION":43.0031,"RA_OF_ASC_NODE":37.0225,"ARG_OF_PERICENTER":253.9167,"MEAN_ANOMALY":106.1534,"EPHEMERIS_TYPE":0,"CLASSIFICATION_TYPE":"U","NORAD_CAT_ID":58082,"ELEMENT_SET_NO":999,"REV_AT_EPOCH":13405,"BSTAR":0.00018317946,"MEAN_MOTION_DOT":4.657e-5,"MEAN_MOTION_DDOT":0},{"OBJECT_NAME":"STARLINK-30551","OBJECT_ID":"2023-160J","EPOCH":"2026-03-17T20:00:01.999008","MEAN_MOTION":15.24389568,"ECCENTRICITY":0.0001682,"INCLINATION":43.0019,"RA_OF_ASC_NODE":35.1358,"ARG_OF_PERICENTER":268.4375,"MEAN_ANOMALY":74.3715,"EPHEMERIS_TYPE":0,"CLASSIFICATION_TYPE":"U","NORAD_CAT_ID":58083,"ELEMENT_SET_NO":999,"REV_AT_EPOCH":581,"BSTAR":0.043938,"MEAN_MOTION_DOT":0.01196132,"MEAN_MOTION_DDOT":0},{"OBJECT_NAME":"STARLINK-30586","OBJECT_ID":"2023-160K","EPOCH":"2026-03-17T20:00:01.999008","MEAN_MOTION":15.23520844,"ECCENTRICITY":0.0001758,"INCLINATION":43.0017,"RA_OF_ASC_NODE":35.1848,"ARG_OF_PERICENTER":265.9691,"MEAN_ANOMALY":55.6541,"EPHEMERIS_TYPE":0,"CLASSIFICATION_TYPE":"U","NORAD_CAT_ID":58084,"ELEMENT_SET_NO":999,"REV_AT_EPOCH":576,"BSTAR":0.046873,"MEAN_MOTION_DOT":0.01248301,"MEAN_MOTION_DDOT":0},{"OBJECT_NAME":"STARLINK-30609","OBJECT_ID":"2023-160L","EPOCH":"2026-03-17T20:00:01.999008","MEAN_MOTION":15.24213055,"ECCENTRICITY":0.0001723,"INCLINATION":43.0018,"RA_OF_ASC_NODE":35.0792,"ARG_OF_PERICENTER":262.6589,"MEAN_ANOMALY":103.1201,"EPHEMERIS_TYPE":0,"CLASSIFICATION_TYPE":"U","NORAD_CAT_ID":58085,"ELEMENT_SET_NO":999,"REV_AT_EPOCH":571,"BSTAR":0.045341,"MEAN_MOTION_DOT":0.01230969,"MEAN_MOTION_DDOT":0},{"OBJECT_NAME":"STARLINK-30583","OBJECT_ID":"2023-160M","EPOCH":"2026-03-17T20:00:01.999008","MEAN_MOTION":15.23433667,"ECCENTRICITY":0.0001755,"INCLINATION":43.0017,"RA_OF_ASC_NODE":35.1077,"ARG_OF_PERICENTER":265.2133,"MEAN_ANOMALY":88.2285,"EPHEMERIS_TYPE":0,"CLASSIFICATION_TYPE":"U","NORAD_CAT_ID":58086,"ELEMENT_SET_NO":999,"REV_AT_EPOCH":557,"BSTAR":0.046978,"MEAN_MOTION_DOT":0.0124785,"MEAN_MOTION_DDOT":0}]
