STARLINK-30480          
1 58069U 23158U   26076.61764089  .00005146  00000+0  19647-3 0  9994
2 58069  42.9990 200.0543 0001607 263.0217  97.0452 15.27568740136453
STARLINK-30532          
1 58070U 23158V   26076.75770743  .00005783  00000+0  21951-3 0  9993
2 58070  42.9977 341.4942 0000635 316.4536  43.6266 15.27578418134800
STARLINK-30513          
1 58071U 23158W   26076.63113047  .02207468  47170-2  22345-2 0  9994
2 58071  42.9756  31.3119 0019123 182.3889 177.6904 16.10752092138390
STARLINK-30506          
1 58072U 23158X   26076.44107184 -.00003029  00000+0 -10064-3 0  9990
2 58072  43.0022 343.4073 0001568 286.4633  73.6047 15.27566786134751
STARLINK-30604          
1 58075U 23160A   26076.57446188  .00045837  00000+0  16755-2 0  9993
2 58075  43.0006  33.1911 0001570 282.8378  77.2298 15.27370922134156
STARLINK-30500          
1 58076U 23160B   26076.84602485  .00044262  00000+0  16338-2 0  9996
2 58076  43.0010  31.7745 0003060 270.9752  89.0749 15.27059865134197
STARLINK-30613          
1 58077U 23160C   26076.58084340 -.00000027  00000+0  85347-5 0  9993
2 58077  42.9968  33.2324 0000848 274.4028  85.6727 15.27569704134167
STARLINK-30597          
1 58078U 23160D   26076.83335647  .00035159  00000+0  12816-2 0  9992
2 58078  43.0010  31.6111 0001178 258.3899 129.8360 15.27566436  5720
STARLINK-30598          
1 58079U 23160E   26076.58468553  .00001937  00000+0  79899-4 0  9991
2 58079  43.0024  33.2635 0000507 292.1089  67.9709 15.27576530134152
STARLINK-30603          
1 58080U 23160F   26076.83335647  .00035367  00000+0  12891-2 0  9999
2 58080  43.0009  31.9081 0001391 261.9175   6.0272 15.27566523  5819
STARLINK-30602          
1 58081U 23160G   26076.56894841  .00015034  00000+0  63348-3 0  9999
2 58081  43.0030  33.9927 0001262 246.6079 113.4638 15.23144301134145
STARLINK-30610          
1 58082U 23160H   26075.94011006  .00004657  00000+0  18318-3 0  9991
2 58082  43.0031  37.0225 0001362 253.9167 106.1534 15.26743374134055
STARLINK-30551          
1 58083U 23160J   26076.83335647  .01196132  00000+0  43938-1 0  9996
2 58083  43.0019  35.1358 0001682 268.4375  74.3715 15.24389568  5812
STARLINK-30586          
1 58084U 23160K   26076.83335647  .01248301  00000+0  46873-1 0  9994
2 58084  43.0017  35.1848 0001758 265.9691  55.6541 15.23520844  5768
STARLINK-30609          
1 58085U 23160L   26076.83335647  .01230969  00000+0  45341-1 0  9995
2 58085  43.0018  35.0792 0001723 262.6589 103.1201 15.24213055  5710
STARLINK-30583          
1 58086U 23160M   26076.83335647  .01247850  00000+0  46978-1 0  9990
2 58086  43.0017  35.1077 0001755 265.2133  88.2285 15.23433667  5577
